NORAD_CAT_ID,OBJECT_NAME,OBJECT_TYPE,EPOCH,MEAN_MOTION,ECCENTRICITY,INCLINATION,RA_OF_ASC_NODE,ARG_OF_PERICENTER,MEAN_ANOMALY,BSTAR,MEAN_MOTION_DOT,MEAN_MOTION_DDOT,TLE_LINE0,TLE_LINE1,TLE_LINE2,SEMIMAJOR_AXIS,PERIOD,APOGEE,PERIGEE,DECAYED
51892.0,STARLINK-3587,PAYLOAD,2023-06-15 17:05:44,15.08842121,9.71e-05,53.2157,159.2134,81.8505,278.2597,5.0296e-05,5.13e-06,0.0,0 STARLINK-3587,1 51892U 22022AS  23166.71232267  .00000513  00000-0  50296-4 0  9996,2 51892  53.2157 159.2134 0000971  81.8505 278.2597 15.08842121 72583,6917.874,95.437,540.411,539.067,0.0
51892.0,STARLINK-3587,PAYLOAD,2023-06-16 05:48:49,15.08843793,9.76e-05,53.2157,156.8343,82.8227,277.2876,6.5958e-05,7.62e-06,0.0,0 STARLINK-3587,1 51892U 22022AS  23167.24224109  .00000762  00000-0  65958-4 0  9998,2 51892  53.2157 156.8343 0000976  82.8227 277.2876 15.08843793 72669,6917.869,95.437,540.409,539.059,0.0
51892.0,STARLINK-3587,PAYLOAD,2023-06-16 23:18:04,15.08840233,0.0001004,53.2159,153.5627,86.6827,273.428,3.1111e-05,2.07e-06,0.0,0 STARLINK-3587,1 51892U 22022AS  23167.97088327  .00000207  00000-0  31111-4 0  9996,2 51892  53.2159 153.5627 0001004  86.6827 273.4280 15.08840233 72776,6917.88,95.438,540.439,539.05,0.0
51892.0,STARLINK-3587,PAYLOAD,2023-06-17 05:39:36,15.08842031,0.0001018,53.216,152.3733,87.5397,272.5712,4.1831e-05,3.78e-06,0.0,0 STARLINK-3587,1 51892U 22022AS  23168.23584156  .00000378  00000-0  41831-4 0  9996,2 51892  53.2160 152.3733 0001018  87.5397 272.5712 15.08842031 72813,6917.874,95.437,540.443,539.035,0.0
51892.0,STARLINK-3587,PAYLOAD,2023-06-17 23:08:51,15.08835729,0.0001056,53.216,149.1024,89.2736,270.8377,-1.7109e-05,-5.6e-06,0.0,0 STARLINK-3587,1 51892U 22022AS  23168.96448797 -.00000560  00000-0 -17109-4 0  9992,2 51892  53.2160 149.1024 0001056  89.2736 270.8377 15.08835729 72924,6917.893,95.438,540.489,539.028,0.0
51892.0,STARLINK-3587,PAYLOAD,2023-06-18 08:41:10,15.08836653,0.0001059,53.2161,147.3186,88.3181,271.7932,-7.9661e-06,-4.15e-06,0.0,0 STARLINK-3587,1 51892U 22022AS  23169.36192781 -.00000415  00000-0 -79661-5 0  9997,2 51892  53.2161 147.3186 0001059  88.3181 271.7932 15.08836653 72981,6917.891,95.438,540.488,539.023,0.0
51892.0,STARLINK-3587,PAYLOAD,2023-06-18 15:02:43,15.08836501,0.0001059,53.216,146.129,87.7641,272.3472,3.2253e-07,-2.83e-06,0.0,0 STARLINK-3587,1 51892U 22022AS  23169.62688810 -.00000283  00000-0  32253-6 0  9998,2 51892  53.2160 146.1290 0001059  87.7641 272.3472 15.08836501 73021,6917.891,95.438,540.489,539.023,0.0
51892.0,STARLINK-3587,PAYLOAD,2023-06-19 05:21:11,15.08840857,0.0001062,53.216,143.4531,88.6878,271.4236,4.8091e-05,4.78e-06,0.0,0 STARLINK-3587,1 51892U 22022AS  23170.22304496  .00000478  00000-0  48091-4 0  9991,2 51892  53.2160 143.4531 0001062  88.6878 271.4236 15.08840857 73112,6917.878,95.438,540.477,539.008,0.0
51892.0,STARLINK-3587,PAYLOAD,2023-06-19 14:53:30,15.08836592,0.0001077,53.2162,141.6692,87.2867,272.8248,3.9449e-05,3.4e-06,0.0,0 STARLINK-3587,1 51892U 22022AS  23170.62048852  .00000340  00000-0  39449-4 0  9991,2 51892  53.2162 141.6692 0001077  87.2867 272.8248 15.08836592 73176,6917.891,95.438,540.501,539.011,0.0
51892.0,STARLINK-3587,PAYLOAD,2023-06-20 05:11:58,15.08832561,0.000107,53.2157,138.9942,99.6533,260.458,3.8761e-05,3.29e-06,0.0,0 STARLINK-3587,1 51892U 22022AS  23171.21665348  .00000329  00000-0  38761-4 0  9995,2 51892  53.2157 138.9942 0001070  99.6533 260.4580 15.08832561 73261,6917.903,95.438,540.508,539.028,0.0
51892.0,STARLINK-3587,PAYLOAD,2023-06-20 06:47:21,15.08835129,0.0001103,53.216,138.6961,91.234,268.8778,5.3444e-05,5.63e-06,0.0,0 STARLINK-3587,1 51892U 22022AS  23171.28289192  .00000563  00000-0  53444-4 0  9996,2 51892  53.2160 138.6961 0001103  91.2340 268.8778 15.08835129 73279,6917.895,95.438,540.523,538.997,0.0
51892.0,STARLINK-3587,PAYLOAD,2023-06-20 14:44:17,15.08834565,0.0001093,53.216,137.2094,90.9793,269.1324,2.7478e-05,1.49e-06,0.0,0 STARLINK-3587,1 51892U 22022AS  23171.61409420  .00000149  00000-0  27478-4 0  9999,2 51892  53.2160 137.2094 0001093  90.9793 269.1324 15.08834565 73327,6917.897,95.438,540.518,539.006,0.0
51892.0,STARLINK-3587,PAYLOAD,2023-06-21 06:38:08,15.08841345,0.0001107,53.2161,134.2359,100.7333,259.3784,0.00010872,1.443e-05,0.0,0 STARLINK-3587,1 51892U 22022AS  23172.27648856  .00001443  00000-0  10872-3 0  9997,2 51892  53.2161 134.2359 0001107 100.7333 259.3784 15.08841345 73421,6917.876,95.437,540.507,538.975,0.0
51892.0,STARLINK-3587,PAYLOAD,2023-06-21 14:35:05,15.08833997,0.0001234,53.2168,132.7481,84.17,275.9433,-1.4334e-05,-5.16e-06,0.0,0 STARLINK-3587,1 51892U 22022AS  23172.60769801 -.00000516  00000-0 -14334-4 0  9998,2 51892  53.2168 132.7481 0001234  84.1700 275.9433 15.08833997 73475,6917.899,95.438,540.617,538.91,0.0
51892.0,STARLINK-3587,PAYLOAD,2023-06-22 14:25:51,15.08838901,0.0001235,53.2163,128.2881,82.7529,277.3604,7.8635e-05,9.64e-06,0.0,0 STARLINK-3587,1 51892U 22022AS  23173.60129555  .00000964  00000-0  78635-4 0  9994,2 51892  53.2163 128.2881 0001235  82.7529 277.3604 15.08838901 73621,6917.884,95.438,540.603,538.894,0.0
51892.0,STARLINK-3587,PAYLOAD,2023-06-23 01:33:33,15.08847356,0.0001246,53.2167,126.2064,83.4146,276.6988,0.00010819,1.435e-05,0.0,0 STARLINK-3587,1 51892U 22022AS  23174.06496910  .00001435  00000-0  10819-3 0  9990,2 51892  53.2167 126.2064 0001246  83.4146 276.6988 15.08847356 73699,6917.858,95.437,540.585,538.861,0.0
51892.0,STARLINK-3587,PAYLOAD,2023-06-24 02:59:43,15.08839657,0.0001362,53.2166,121.4476,96.6804,263.4343,9.4176e-05,1.211e-05,0.0,0 STARLINK-3587,1 51892U 22022AS  23175.12481265  .00001211  00000-0  94176-4 0  9996,2 51892  53.2166 121.4476 0001362  96.6804 263.4343 15.08839657 73850,6917.881,95.438,540.689,538.804,0.0
51892.0,STARLINK-3587,PAYLOAD,2023-06-25 01:15:08,15.08837865,0.0001262,53.2161,117.2855,96.5783,263.5353,-3.5575e-05,-8.54e-06,0.0,0 STARLINK-3587,1 51892U 22022AS  23176.05217830 -.00000854  00000-0 -35575-4 0  9996,2 51892  53.2161 117.2855 0001262  96.5783 263.5353 15.08837865 73999,6917.887,95.438,540.625,538.879,0.0
51892.0,STARLINK-3587,PAYLOAD,2023-06-26 02:41:17,15.08844359,0.0001147,53.2162,112.5285,98.9081,261.2041,0.00012042,1.629e-05,0.0,0 STARLINK-3587,1 51892U 22022AS  23177.11200961  .00001629  00000-0  12042-3 0  9993,2 51892  53.2162 112.5285 0001147  98.9081 261.2041 15.08844359 74158,6917.867,95.437,540.526,538.939,0.0
51892.0,STARLINK-3587,PAYLOAD,2023-06-26 12:13:36,15.08836455,0.0001123,53.2163,110.745,91.5254,268.5867,0.00013681,1.89e-05,0.0,0 STARLINK-3587,1 51892U 22022AS  23177.50945515  .00001890  00000-0  13681-3 0  9997,2 51892  53.2163 110.7450 0001123  91.5254 268.5867 15.08836455 74219,6917.891,95.438,540.533,538.979,0.0
51892.0,STARLINK-3587,PAYLOAD,2023-06-27 02:32:05,15.0883075,0.0001157,53.217,108.0705,84.9598,275.1526,3.2134e-05,2.24e-06,0.0,0 STARLINK-3587,1 51892U 22022AS  23178.10562487  .00000224  00000-0  32134-4 0  9992,2 51892  53.2170 108.0705 0001157  84.9598 275.1526 15.08830750 74302,6917.909,95.438,540.574,538.973,0.0
51892.0,STARLINK-3587,PAYLOAD,2023-06-28 03:58:15,15.08842973,0.0001168,53.218,103.3123,86.9314,273.1812,4.1965e-05,3.8e-06,0.0,0 STARLINK-3587,1 51892U 22022AS  23179.16546019  .00000380  00000-0  41965-4 0  9997,2 51892  53.2180 103.3123 0001168  86.9314 273.1812 15.08842973 74468,6917.871,95.437,540.544,538.928,0.0
51892.0,STARLINK-3587,PAYLOAD,2023-06-29 03:49:03,15.0883258,0.0001264,53.2183,98.8477,85.7745,274.3392,9.3509e-05,1.2e-05,0.0,0 STARLINK-3587,1 51892U 22022AS  23180.15906848  .00001200  00000-0  93509-4 0  9991,2 51892  53.2183  98.8477 0001264  85.7745 274.3392 15.08832580 74619,6917.903,95.438,540.642,538.894,0.0
51892.0,STARLINK-3587,PAYLOAD,2023-06-30 11:36:45,15.08841413,9.4e-05,53.2159,92.9031,96.6509,263.4591,1.5468e-05,-4.2e-07,0.0,0 STARLINK-3587,1 51892U 22022AS  23181.48386518 -.00000042  00000-0  15468-4 0  9996,2 51892  53.2159  92.9031 0000940  96.6509 263.4591 15.08841413 74819,6917.876,95.437,540.391,539.091,0.0
51892.0,STARLINK-3587,PAYLOAD,2023-07-01 00:19:51,15.08835285,0.000116,53.2173,90.5241,82.7764,277.336,8.2039e-06,-1.57e-06,0.0,0 STARLINK-3587,1 51892U 22022AS  23182.01379144 -.00000157  00000-0  82039-5 0  9999,2 51892  53.2173  90.5241 0001160  82.7764 277.3360 15.08835285 74892,6917.895,95.438,540.562,538.957,0.0
51892.0,STARLINK-3587,PAYLOAD,2023-07-01 17:49:05,15.08840453,0.0001116,53.2175,87.2517,85.7142,274.3978,8.1971e-05,1.017e-05,0.0,0 STARLINK-3587,1 51892U 22022AS  23182.74242605  .00001017  00000-0  81971-4 0  9998,2 51892  53.2175  87.2517 0001116  85.7142 274.3978 15.08840453 75006,6917.879,95.438,540.516,538.972,0.0
51892.0,STARLINK-3587,PAYLOAD,2023-07-02 03:21:23,15.08850864,0.0001274,53.2173,85.4672,86.6558,273.458,3.0808e-05,2.03e-06,0.0,0 STARLINK-3587,1 51892U 22022AS  23183.13986015  .00000203  00000-0  30808-4 0  9991,2 51892  53.2173  85.4672 0001274  86.6558 273.4580 15.08850864 75064,6917.847,95.437,540.594,538.831,0.0
51892.0,STARLINK-3587,PAYLOAD,2023-07-03 01:36:48,15.08844083,0.0001172,53.2175,81.3046,85.6042,274.5084,0.00011078,1.476e-05,0.0,0 STARLINK-3587,1 51892U 22022AS  23184.06722252  .00001476  00000-0  11078-3 0  9995,2 51892  53.2175  81.3046 0001172  85.6042 274.5084 15.08844083 75203,6917.868,95.437,540.544,538.922,0.0
51892.0,STARLINK-3587,PAYLOAD,2023-07-03 17:30:40,15.08836601,0.0001,53.2167,78.3303,89.5481,270.5626,-1.9814e-05,-6.03e-06,0.0,0 STARLINK-3587,1 51892U 22022AS  23184.72963121 -.00000603  00000-0 -19814-4 0  9990,2 51892  53.2167  78.3303 0001000  89.5481 270.5626 15.08836601 75302,6917.891,95.438,540.448,539.064,0.0
51892.0,STARLINK-3587,PAYLOAD,2023-07-04 03:02:58,15.08842741,0.0001096,53.217,76.5463,87.6598,272.452,1.0777e-05,-1.16e-06,0.0,0 STARLINK-3587,1 51892U 22022AS  23185.12706638 -.00000116  00000-0  10777-4 0  9990,2 51892  53.2170  76.5463 0001096  87.6598 272.4520 15.08842741 75368,6917.872,95.437,540.495,538.979,0.0
